SL-3 R/B                
1 13403U 82079B   26005.12458046  .00007188  00000+0  29356-3 0  9991
2 13403  81.1473 268.0924 0026102  23.6765 336.5662 15.23925699368018
SL-14 R/B               
1 13553U 82092B   26005.04781412  .00000711  00000+0  77103-4 0  9998
2 13553  82.5669 200.9125 0021074 148.8364 328.1324 14.86583229319477
SL-3 R/B                
1 13819U 83010B   26005.17051909  .00016026  00000+0  34649-3 0  9992
2 13819  81.1041  80.0049 0016202 267.0184  92.9205 15.44221290348135
SL-3 R/B                
1 14208U 83075B   26005.10374091  .00011908  00000+0  33103-3 0  9997
2 14208  97.6107   7.3802 0024535  96.5300 263.8738 15.36711469320385
COSMOS 1536             
1 14699U 84013A   26004.93850794  .00008660  00000+0  36716-3 0  9997
2 14699  82.5450 171.1524 0015294 142.9156 217.3141 15.22873297262910
SL-14 R/B               
1 14820U 84027B   26004.92306377  .00000744  00000+0  82414-4 0  9992
2 14820  82.5430 304.8165 0017854 179.7544 180.3685 14.85904733238163
SL-8 R/B                
1 15483U 85006B   26005.13213510  .00000408  00000+0  14411-3 0  9994
2 15483  74.0458  18.0941 0019630 306.0453 121.1333 14.37739197144895
SL-12 R/B(2)            
1 15772U 85042D   26005.03996922  .00000072  00000+0  53932-4 0  9998
2 15772  71.1068 222.1970 0036935 227.1561 240.8751 14.21959652105344
SL-14 R/B               
1 15945U 85069B   26005.19652816  .00000684  00000+0  74610-4 0  9992
2 15945  82.5268  84.6513 0019851  46.2134 314.0720 14.86355689163404
SL-16 R/B               
1 16182U 85097B   26005.17239376  .00000283  00000+0  16584-3 0  9997
2 16182  71.0032 274.2724 0008098 336.5401 185.9212 14.16588404 78237
SL-14 R/B               
1 16496U 86006B   26004.92046335  .00000929  00000+0  95852-4 0  9992
2 16496  82.5281 319.7406 0077983 123.4217 237.4490 14.86707464139737
COSMOS 1743             
1 16719U 86034A   26005.11036705  .00039131  00000+0  60776-3 0  9996
2 16719  82.5358 140.2914 0005111 161.5111 198.6329 15.53770433170365
