CCSDS_OMM_VERS = 2.0
CREATION_DATE  = 
ORIGINATOR     = 

OBJECT_NAME    = SL-3 R/B
OBJECT_ID      = 1982-079B
CENTER_NAME    = EARTH
REF_FRAME      = TEME
TIME_SYSTEM    = UTC
MEAN_ELEMENT_THEORY = SGP/SGP4

EPOCH          = 2026-01-05T02:59:23.751744
MEAN_MOTION    = 15.23925699
ECCENTRICITY   = .0026102
INCLINATION    = 81.1473
RA_OF_ASC_NODE = 268.0924
ARG_OF_PERICENTER = 23.6765
MEAN_ANOMALY   = 336.5662

EPHEMERIS_TYPE = 0
CLASSIFICATION_TYPE = U
NORAD_CAT_ID   = 13403
ELEMENT_SET_NO = 999
REV_AT_EPOCH   = 36801
BSTAR          = .29356E-3
MEAN_MOTION_DOT = .7188E-4
MEAN_MOTION_DDOT = 0

CCSDS_OMM_VERS = 2.0
CREATION_DATE  = 
ORIGINATOR     = 

OBJECT_NAME    = SL-14 R/B
OBJECT_ID      = 1982-092B
CENTER_NAME    = EARTH
REF_FRAME      = TEME
TIME_SYSTEM    = UTC
MEAN_ELEMENT_THEORY = SGP/SGP4

EPOCH          = 2026-01-05T01:08:51.139968
MEAN_MOTION    = 14.86583229
ECCENTRICITY   = .0021074
INCLINATION    = 82.5669
RA_OF_ASC_NODE = 200.9125
ARG_OF_PERICENTER = 148.8364
MEAN_ANOMALY   = 328.1324

EPHEMERIS_TYPE = 0
CLASSIFICATION_TYPE = U
NORAD_CAT_ID   = 13553
ELEMENT_SET_NO = 999
REV_AT_EPOCH   = 31947
BSTAR          = .77103E-4
MEAN_MOTION_DOT = .711E-5
MEAN_MOTION_DDOT = 0

CCSDS_OMM_VERS = 2.0
CREATION_DATE  = 
ORIGINATOR     = 

OBJECT_NAME    = SL-3 R/B
OBJECT_ID      = 1983-010B
CENTER_NAME    = EARTH
REF_FRAME      = TEME
TIME_SYSTEM    = UTC
MEAN_ELEMENT_THEORY = SGP/SGP4

EPOCH          = 2026-01-05T04:05:32.849376
MEAN_MOTION    = 15.44221290
ECCENTRICITY   = .0016202
INCLINATION    = 81.1041
RA_OF_ASC_NODE = 80.0049
ARG_OF_PERICENTER = 267.0184
MEAN_ANOMALY   = 92.9205

EPHEMERIS_TYPE = 0
CLASSIFICATION_TYPE = U
NORAD_CAT_ID   = 13819
ELEMENT_SET_NO = 999
REV_AT_EPOCH   = 34813
BSTAR          = .34649E-3
MEAN_MOTION_DOT = .16026E-3
MEAN_MOTION_DDOT = 0

CCSDS_OMM_VERS = 2.0
CREATION_DATE  = 
ORIGINATOR     = 

OBJECT_NAME    = SL-3 R/B
OBJECT_ID      = 1983-075B
CENTER_NAME    = EARTH
REF_FRAME      = TEME
TIME_SYSTEM    = UTC
MEAN_ELEMENT_THEORY = SGP/SGP4

EPOCH          = 2026-01-05T02:29:23.214624
MEAN_MOTION    = 15.36711469
ECCENTRICITY   = .0024535
INCLINATION    = 97.6107
RA_OF_ASC_NODE = 7.3802
ARG_OF_PERICENTER = 96.5300
MEAN_ANOMALY   = 263.8738

EPHEMERIS_TYPE = 0
CLASSIFICATION_TYPE = U
NORAD_CAT_ID   = 14208
ELEMENT_SET_NO = 999
REV_AT_EPOCH   = 32038
BSTAR          = .33103E-3
MEAN_MOTION_DOT = .11908E-3
MEAN_MOTION_DDOT = 0

CCSDS_OMM_VERS = 2.0
CREATION_DATE  = 
ORIGINATOR     = 

OBJECT_NAME    = COSMOS 1536
OBJECT_ID      = 1984-013A
CENTER_NAME    = EARTH
REF_FRAME      = TEME
TIME_SYSTEM    = UTC
MEAN_ELEMENT_THEORY = SGP/SGP4

EPOCH          = 2026-01-04T22:31:27.086016
MEAN_MOTION    = 15.22873297
ECCENTRICITY   = .0015294
INCLINATION    = 82.5450
RA_OF_ASC_NODE = 171.1524
ARG_OF_PERICENTER = 142.9156
MEAN_ANOMALY   = 217.3141

EPHEMERIS_TYPE = 0
CLASSIFICATION_TYPE = U
NORAD_CAT_ID   = 14699
ELEMENT_SET_NO = 999
REV_AT_EPOCH   = 26291
BSTAR          = .36716E-3
MEAN_MOTION_DOT = .866E-4
MEAN_MOTION_DDOT = 0

CCSDS_OMM_VERS = 2.0
CREATION_DATE  = 
ORIGINATOR     = 

OBJECT_NAME    = SL-14 R/B
OBJECT_ID      = 1984-027B
CENTER_NAME    = EARTH
REF_FRAME      = TEME
TIME_SYSTEM    = UTC
MEAN_ELEMENT_THEORY = SGP/SGP4

EPOCH          = 2026-01-04T22:09:12.709728
MEAN_MOTION    = 14.85904733
ECCENTRICITY   = .0017854
INCLINATION    = 82.5430
RA_OF_ASC_NODE = 304.8165
ARG_OF_PERICENTER = 179.7544
MEAN_ANOMALY   = 180.3685

EPHEMERIS_TYPE = 0
CLASSIFICATION_TYPE = U
NORAD_CAT_ID   = 14820
ELEMENT_SET_NO = 999
REV_AT_EPOCH   = 23816
BSTAR          = .82414E-4
MEAN_MOTION_DOT = .744E-5
MEAN_MOTION_DDOT = 0

CCSDS_OMM_VERS = 2.0
CREATION_DATE  = 
ORIGINATOR     = 

OBJECT_NAME    = SL-8 R/B
OBJECT_ID      = 1985-006B
CENTER_NAME    = EARTH
REF_FRAME      = TEME
TIME_SYSTEM    = UTC
MEAN_ELEMENT_THEORY = SGP/SGP4

EPOCH          = 2026-01-05T03:10:16.472640
MEAN_MOTION    = 14.37739197
ECCENTRICITY   = .001963
INCLINATION    = 74.0458
RA_OF_ASC_NODE = 18.0941
ARG_OF_PERICENTER = 306.0453
MEAN_ANOMALY   = 121.1333

EPHEMERIS_TYPE = 0
CLASSIFICATION_TYPE = U
NORAD_CAT_ID   = 15483
ELEMENT_SET_NO = 999
REV_AT_EPOCH   = 14489
BSTAR          = .14411E-3
MEAN_MOTION_DOT = .408E-5
MEAN_MOTION_DDOT = 0

CCSDS_OMM_VERS = 2.0
CREATION_DATE  = 
ORIGINATOR     = 

OBJECT_NAME    = SL-12 R/B(2)
OBJECT_ID      = 1985-042D
CENTER_NAME    = EARTH
REF_FRAME      = TEME
TIME_SYSTEM    = UTC
MEAN_ELEMENT_THEORY = SGP/SGP4

EPOCH          = 2026-01-05T00:57:33.340608
MEAN_MOTION    = 14.21959652
ECCENTRICITY   = .0036935
INCLINATION    = 71.1068
RA_OF_ASC_NODE = 222.1970
ARG_OF_PERICENTER = 227.1561
MEAN_ANOMALY   = 240.8751

EPHEMERIS_TYPE = 0
CLASSIFICATION_TYPE = U
NORAD_CAT_ID   = 15772
ELEMENT_SET_NO = 999
REV_AT_EPOCH   = 10534
BSTAR          = .53932E-4
MEAN_MOTION_DOT = .72E-6
MEAN_MOTION_DDOT = 0

CCSDS_OMM_VERS = 2.0
CREATION_DATE  = 
ORIGINATOR     = 

OBJECT_NAME    = SL-14 R/B
OBJECT_ID      = 1985-069B
CENTER_NAME    = EARTH
REF_FRAME      = TEME
TIME_SYSTEM    = UTC
MEAN_ELEMENT_THEORY = SGP/SGP4

EPOCH          = 2026-01-05T04:43:00.033024
MEAN_MOTION    = 14.86355689
ECCENTRICITY   = .0019851
INCLINATION    = 82.5268
RA_OF_ASC_NODE = 84.6513
ARG_OF_PERICENTER = 46.2134
MEAN_ANOMALY   = 314.0720

EPHEMERIS_TYPE = 0
CLASSIFICATION_TYPE = U
NORAD_CAT_ID   = 15945
ELEMENT_SET_NO = 999
REV_AT_EPOCH   = 16340
BSTAR          = .7461E-4
MEAN_MOTION_DOT = .684E-5
MEAN_MOTION_DDOT = 0

CCSDS_OMM_VERS = 2.0
CREATION_DATE  = 
ORIGINATOR     = 

OBJECT_NAME    = SL-16 R/B
OBJECT_ID      = 1985-097B
CENTER_NAME    = EARTH
REF_FRAME      = TEME
TIME_SYSTEM    = UTC
MEAN_ELEMENT_THEORY = SGP/SGP4

EPOCH          = 2026-01-05T04:08:14.820864
MEAN_MOTION    = 14.16588404
ECCENTRICITY   = .0008098
INCLINATION    = 71.0032
RA_OF_ASC_NODE = 274.2724
ARG_OF_PERICENTER = 336.5401
MEAN_ANOMALY   = 185.9212

EPHEMERIS_TYPE = 0
CLASSIFICATION_TYPE = U
NORAD_CAT_ID   = 16182
ELEMENT_SET_NO = 999
REV_AT_EPOCH   = 7823
BSTAR          = .16584E-3
MEAN_MOTION_DOT = .283E-5
MEAN_MOTION_DDOT = 0

CCSDS_OMM_VERS = 2.0
CREATION_DATE  = 
ORIGINATOR     = 

OBJECT_NAME    = SL-14 R/B
OBJECT_ID      = 1986-006B
CENTER_NAME    = EARTH
REF_FRAME      = TEME
TIME_SYSTEM    = UTC
MEAN_ELEMENT_THEORY = SGP/SGP4

EPOCH          = 2026-01-04T22:05:28.033440
MEAN_MOTION    = 14.86707464
ECCENTRICITY   = .0077983
INCLINATION    = 82.5281
RA_OF_ASC_NODE = 319.7406
ARG_OF_PERICENTER = 123.4217
MEAN_ANOMALY   = 237.4490

EPHEMERIS_TYPE = 0
CLASSIFICATION_TYPE = U
NORAD_CAT_ID   = 16496
ELEMENT_SET_NO = 999
REV_AT_EPOCH   = 13973
BSTAR          = .95852E-4
MEAN_MOTION_DOT = .929E-5
MEAN_MOTION_DDOT = 0

CCSDS_OMM_VERS = 2.0
CREATION_DATE  = 
ORIGINATOR     = 

OBJECT_NAME    = COSMOS 1743
OBJECT_ID      = 1986-034A
CENTER_NAME    = EARTH
REF_FRAME      = TEME
TIME_SYSTEM    = UTC
MEAN_ELEMENT_THEORY = SGP/SGP4

EPOCH          = 2026-01-05T02:38:55.713120
MEAN_MOTION    = 15.53770433
ECCENTRICITY   = .0005111
INCLINATION    = 82.5358
RA_OF_ASC_NODE = 140.2914
ARG_OF_PERICENTER = 161.5111
MEAN_ANOMALY   = 198.6329

EPHEMERIS_TYPE = 0
CLASSIFICATION_TYPE = U
NORAD_CAT_ID   = 16719
ELEMENT_SET_NO = 999
REV_AT_EPOCH   = 17036
BSTAR          = .60776E-3
MEAN_MOTION_DOT = .39131E-3
MEAN_MOTION_DDOT = 0

